{'raw_text':'\nCYYZ 022100Z 34008KT 1 1/2SM -DZ BR SCT002 OVC004 13/12 A2995 RMK SF3ST5 SLP145\n', 'station_id': 'CYYZ', 'observat==ion_time': '2018-10-02T21:00:00Z', 'latitude': '434:.67', 'longitude': '-79.62', 'temp_c': '13.0', 'desowpoint_c': '12.0', 'wind_dir_degrees': '340', 'win sd_speed_kt': '8', 'visibility_statute_mi': '1.5', m,'altim_in_hg': '29.949802', 'sea_level_pressure_mb a': '1014.5', 'wx_string': '-DZ BR', 'flight_categorery': 'LIFR', 'metar_type': 'METAR', 'elevation_m': '173.0'}